[{"OBJECT_NAME":"NEXTSAT-1","OBJECT_ID":"2018-099BF","EPOCH":"2026-03-09T16:24:07.497504","MEAN_MOTION":15.08057555,"ECCENTRICITY":0.001132,"INCLINATION":97.4203,"RA_OF_ASC_NODE":114.8574,"ARG_OF_PERICENTER":323.961,"MEAN_ANOMALY":36.0854,"EPHEMERIS_TYPE":0,"CLASSIFICATION_TYPE":"U","NORAD_CAT_ID":43811,"ELEMENT_SET_NO":999,"REV_AT_EPOCH":39688,"BSTAR":0.00029857014,"MEAN_MOTION_DOT":4.546e-5,"MEAN_MOTION_DDOT":0},{"OBJECT_NAME":"STARLINK-5255","OBJECT_ID":"2022-141BD","EPOCH":"2026-03-09T23:50:33.330048","MEAN_MOTION":15.08876434,"ECCENTRICITY":9.569e-5,"INCLINATION":53.2184,"RA_OF_ASC_NODE":327.8045,"ARG_OF_PERICENTER":73.9905,"MEAN_ANOMALY":286.1193,"EPHEMERIS_TYPE":0,"CLASSIFICATION_TYPE":"U","NORAD_CAT_ID":54208,"ELEMENT_SET_NO":999,"REV_AT_EPOCH":18639,"BSTAR":-0.00059452631,"MEAN_MOTION_DOT":-9.746e-5,"MEAN_MOTION_DDOT":0}]
